[{"OBJECT_NAME":"DUBAISAT-2","OBJECT_ID":"2013-066D","EPOCH":"2026-03-09T22:07:51.982752","MEAN_MOTION":15.09361694,"ECCENTRICITY":0.00120191,"INCLINATION":97.4538,"RA_OF_ASC_NODE":61.7474,"ARG_OF_PERICENTER":22.7165,"MEAN_ANOMALY":337.4593,"EPHEMERIS_TYPE":0,"CLASSIFICATION_TYPE":"U","NORAD_CAT_ID":39419,"ELEMENT_SET_NO":999,"REV_AT_EPOCH":67141,"BSTAR":0.00034743884,"MEAN_MOTION_DOT":5.495e-5,"MEAN_MOTION_DDOT":0},{"OBJECT_NAME":"STARLINK-5768","OBJECT_ID":"2023-090AW","EPOCH":"2026-03-09T22:00:01.999584","MEAN_MOTION":15.05043878,"ECCENTRICITY":5.701e-5,"INCLINATION":43.0013,"RA_OF_ASC_NODE":260.3035,"ARG_OF_PERICENTER":317.6018,"MEAN_ANOMALY":219.2642,"EPHEMERIS_TYPE":0,"CLASSIFICATION_TYPE":"U","NORAD_CAT_ID":57145,"ELEMENT_SET_NO":999,"REV_AT_EPOCH":572,"BSTAR":0.0053484962,"MEAN_MOTION_DOT":0.00077904,"MEAN_MOTION_DDOT":0}]
